NORAD_CAT_ID,OBJECT_NAME,OBJECT_TYPE,EPOCH,MEAN_MOTION,ECCENTRICITY,INCLINATION,RA_OF_ASC_NODE,ARG_OF_PERICENTER,MEAN_ANOMALY,BSTAR,MEAN_MOTION_DOT,MEAN_MOTION_DDOT,TLE_LINE0,TLE_LINE1,TLE_LINE2,SEMIMAJOR_AXIS,PERIOD,APOGEE,PERIGEE,DECAYED
49750.0,STARLINK-3236,PAYLOAD,2023-11-08 09:59:55,15.08844829,0.0001763,53.2187,15.1347,112.0305,248.0875,0.00055178,8.506e-05,0.0,0 STARLINK-3236,1 49750U 21115AC  23312.41661975  .00008506  00000-0  55178-3 0  9993,2 49750  53.2187  15.1347 0001763 112.0305 248.0875 15.08844829107981,6917.866,95.437,540.95,538.511,0.0
49750.0,STARLINK-3236,PAYLOAD,2023-11-08 21:07:37,15.08853422,0.0001488,53.2184,13.0545,85.7929,274.3233,0.00034163,5.155e-05,0.0,0 STARLINK-3236,1 49750U 21115AC  23312.88029120  .00005155  00000-0  34163-3 0  9992,2 49750  53.2184  13.0545 0001488  85.7929 274.3233 15.08853422106941,6917.839,95.437,540.734,538.675,0.0
49750.0,STARLINK-3236,PAYLOAD,2023-11-09 11:26:05,15.08855143,0.0001717,53.2185,10.3825,112.3186,247.7988,0.00054531,8.405e-05,0.0,0 STARLINK-3236,1 49750U 21115AC  23313.47645211  .00008405  00000-0  54531-3 0  9995,2 49750  53.2185  10.3825 0001717 112.3186 247.7988 15.08855143108147,6917.834,95.437,540.887,538.511,0.0
49750.0,STARLINK-3236,PAYLOAD,2023-11-09 13:01:28,15.08855082,0.0001458,53.2186,10.0819,100.4556,259.66,0.00055422,8.547e-05,0.0,0 STARLINK-3236,1 49750U 21115AC  23313.54269108  .00008547  00000-0  55422-3 0  9997,2 49750  53.2186  10.0819 0001458 100.4556 259.6600 15.08855082107042,6917.834,95.437,540.708,538.691,0.0
49750.0,STARLINK-3236,PAYLOAD,2023-11-10 11:16:52,15.08852247,0.0001709,53.2187,5.9209,75.5944,284.5238,-2.7509e-05,-7.26e-06,0.0,0 STARLINK-3236,1 49750U 21115AC  23314.47004879 -.00000726  00000-0 -27509-4 0  9991,2 49750  53.2187   5.9209 0001709  75.5944 284.5238 15.08852247108293,6917.843,95.437,540.89,538.526,0.0
49750.0,STARLINK-3236,PAYLOAD,2023-11-11 03:10:43,15.08842028,0.000183,53.2191,2.9459,77.0692,283.0504,-3.4711e-05,-8.41e-06,0.0,0 STARLINK-3236,1 49750U 21115AC  23315.13245175 -.00000841  00000-0 -34711-4 0  9992,2 49750  53.2191   2.9459 0001830  77.0692 283.0504 15.08842028108391,6917.874,95.437,541.005,538.473,0.0
49750.0,STARLINK-3236,PAYLOAD,2023-11-11 09:32:16,15.08843696,0.0001566,53.2195,1.7538,85.2497,274.8674,2.794e-05,1.57e-06,0.0,0 STARLINK-3236,1 49750U 21115AC  23315.39741360  .00000157  00000-0  27940-4 0  9991,2 49750  53.2195   1.7538 0001566  85.2497 274.8674 15.08843696107320,6917.869,95.437,540.817,538.651,0.0
49750.0,STARLINK-3236,PAYLOAD,2023-11-11 20:39:57,15.08849053,0.000156,53.2193,359.6717,82.0119,278.105,-5.7557e-05,-1.204e-05,0.0,0 STARLINK-3236,1 49750U 21115AC  23315.86108771 -.00001204  00000-0 -57557-4 0  9999,2 49750  53.2193 359.6717 0001560  82.0119 278.1050 15.08849053107397,6917.853,95.437,540.797,538.639,0.0
49750.0,STARLINK-3236,PAYLOAD,2023-11-12 09:23:03,15.08848778,0.0001541,53.2189,357.2927,87.0402,273.0766,7.1393e-05,8.49e-06,0.0,0 STARLINK-3236,1 49750U 21115AC  23316.39100749  .00000849  00000-0  71393-4 0  9991,2 49750  53.2189 357.2927 0001541  87.0402 273.0766 15.08848778108581,6917.854,95.437,540.785,538.653,0.0
49750.0,STARLINK-3236,PAYLOAD,2023-11-13 12:24:35,15.08851315,0.0001591,53.2187,352.2365,91.2204,268.8971,0.00015541,2.187e-05,0.0,0 STARLINK-3236,1 49750U 21115AC  23317.51708102  .00002187  00000-0  15541-3 0  9992,2 49750  53.2187 352.2365 0001591  91.2204 268.8971 15.08851315107649,6917.846,95.437,540.811,538.61,0.0
49750.0,STARLINK-3236,PAYLOAD,2023-11-14 02:43:04,15.08837968,0.0001544,53.2187,349.555,105.8955,254.2208,6.4016e-05,7.31e-06,0.0,0 STARLINK-3236,1 49750U 21115AC  23318.11325157  .00000731  00000-0  64016-4 0  9999,2 49750  53.2187 349.5550 0001544 105.8955 254.2208 15.08837968108840,6917.887,95.438,540.82,538.683,0.0
49750.0,STARLINK-3236,PAYLOAD,2023-11-14 12:15:23,15.08841671,0.0001502,53.2187,347.7755,93.3752,266.7412,1.9904e-05,2.9e-07,0.0,0 STARLINK-3236,1 49750U 21115AC  23318.51068976  .00000029  00000-0  19904-4 0  9992,2 49750  53.2187 347.7755 0001502  93.3752 266.7412 15.08841671107791,6917.875,95.437,540.779,538.701,0.0
49750.0,STARLINK-3236,PAYLOAD,2023-11-15 08:55:24,15.08840849,0.0001753,53.2187,343.9114,114.8882,245.2292,-5.3495e-05,-1.139e-05,0.0,0 STARLINK-3236,1 49750U 21115AC  23319.37181286 -.00001139  00000-0 -53495-4 0  9995,2 49750  53.2187 343.9114 0001753 114.8882 245.2292 15.08840849109032,6917.878,95.438,540.955,538.53,0.0
49750.0,STARLINK-3236,PAYLOAD,2023-11-15 18:27:43,15.08842367,0.0001563,53.2188,342.1277,89.2464,270.8707,-3.646e-05,-8.68e-06,0.0,0 STARLINK-3236,1 49750U 21115AC  23319.76925198 -.00000868  00000-0 -36460-4 0  9997,2 49750  53.2188 342.1277 0001563  89.2464 270.8707 15.08842367107988,6917.873,95.437,540.819,538.657,0.0
49750.0,STARLINK-3236,PAYLOAD,2023-11-16 07:10:48,15.08836485,0.0001558,53.2188,339.7479,96.2637,263.8533,0.0001142,1.53e-05,0.0,0 STARLINK-3236,1 49750U 21115AC  23320.29917495  .00001530  00000-0  11420-3 0  9991,2 49750  53.2188 339.7479 0001558  96.2637 263.8533 15.08836485108061,6917.891,95.438,540.834,538.678,0.0
49750.0,STARLINK-3236,PAYLOAD,2023-11-17 10:12:22,15.0883732,0.0001506,53.2181,334.692,82.5629,277.5534,6.3506e-05,7.23e-06,0.0,0 STARLINK-3236,1 49750U 21115AC  23321.42525957  .00000723  00000-0  63506-4 0  9991,2 49750  53.2181 334.6920 0001506  82.5629 277.5534 15.08837320109345,6917.889,95.438,540.795,538.712,0.0
49750.0,STARLINK-3236,PAYLOAD,2023-11-17 18:09:18,15.08837534,0.0001476,53.2179,333.2054,87.4684,272.6477,5.8342e-05,6.41e-06,0.0,0 STARLINK-3236,1 49750U 21115AC  23321.75645979  .00000641  00000-0  58342-4 0  9995,2 49750  53.2179 333.2054 0001476  87.4684 272.6477 15.08837534108287,6917.888,95.438,540.774,538.732,0.0
49750.0,STARLINK-3236,PAYLOAD,2023-11-18 08:27:45,15.08843642,0.000146,53.2177,330.5302,86.332,273.7839,0.00010566,1.394e-05,0.0,0 STARLINK-3236,1 49750U 21115AC  23322.35261533  .00001394  00000-0  10566-3 0  9993,2 49750  53.2177 330.5302 0001460  86.3320 273.7839 15.08843642108370,6917.869,95.437,540.744,538.724,0.0
49750.0,STARLINK-3236,PAYLOAD,2023-11-18 18:00:04,15.08841078,0.0001427,53.2175,328.7458,101.2937,258.8216,9.3745e-05,1.204e-05,0.0,0 STARLINK-3236,1 49750U 21115AC  23322.75005624  .00001204  00000-0  93745-4 0  9995,2 49750  53.2175 328.7458 0001427 101.2937 258.8216 15.08841078109547,6917.877,95.437,540.729,538.755,0.0
49750.0,STARLINK-3236,PAYLOAD,2023-11-19 09:53:56,15.08843279,0.0001474,53.2173,325.7715,89.0414,271.0747,8.9938e-05,1.144e-05,0.0,0 STARLINK-3236,1 49750U 21115AC  23323.41245542  .00001144  00000-0  89938-4 0  9996,2 49750  53.2173 325.7715 0001474  89.0414 271.0747 15.08843279108532,6917.87,95.437,540.755,538.716,0.0
49750.0,STARLINK-3236,PAYLOAD,2023-11-19 17:50:51,15.08842236,0.0001431,53.2174,324.2844,91.4648,268.6508,7.2254e-05,8.62e-06,0.0,0 STARLINK-3236,1 49750U 21115AC  23323.74365581  .00000862  00000-0  72254-4 0  9997,2 49750  53.2174 324.2844 0001431  91.4648 268.6508 15.08842236108583,6917.874,95.437,540.729,538.749,0.0
49750.0,STARLINK-3236,PAYLOAD,2023-11-20 03:23:10,15.08842266,0.0001474,53.2176,322.5,92.4905,267.6255,6.8478e-05,8.02e-06,0.0,0 STARLINK-3236,1 49750U 21115AC  23324.14109495  .00000802  00000-0  68478-4 0  9999,2 49750  53.2176 322.5000 0001474  92.4905 267.6255 15.08842266109755,6917.873,95.437,540.758,538.719,0.0
49750.0,STARLINK-3236,PAYLOAD,2023-11-20 06:33:56,15.08847018,0.0001789,53.218,321.9045,94.0304,266.0892,7.7724e-05,9.49e-06,0.0,0 STARLINK-3236,1 49750U 21115AC  23324.27357259  .00000949  00000-0  77724-4 0  9992,2 49750  53.2180 321.9045 0001789  94.0304 266.0892 15.08847018108661,6917.859,95.437,540.962,538.486,0.0
49750.0,STARLINK-3236,PAYLOAD,2023-11-21 06:24:43,15.08842836,0.0001448,53.2174,317.4449,89.8543,270.2615,4.0299e-05,3.54e-06,0.0,0 STARLINK-3236,1 49750U 21115AC  23325.26717470  .00000354  00000-0  40299-4 0  9994,2 49750  53.2174 317.4449 0001448  89.8543 270.2615 15.08842836109924,6917.872,95.437,540.738,538.735,0.0
49750.0,STARLINK-3236,PAYLOAD,2023-11-22 06:15:30,15.08850683,0.0001543,53.2185,312.9873,92.2945,267.8224,0.00011805,1.592e-05,0.0,0 STARLINK-3236,1 49750U 21115AC  23326.26076818  .00001592  00000-0  11805-3 0  9994,2 49750  53.2185 312.9873 0001543  92.2945 267.8224 15.08850683108967,6917.848,95.437,540.78,538.645,0.0
49750.0,STARLINK-3236,PAYLOAD,2023-11-23 02:55:31,15.08840739,0.0001734,53.2192,309.1216,105.807,254.3114,9.37e-05,1.204e-05,0.0,0 STARLINK-3236,1 49750U 21115AC  23327.12189412  .00001204  00000-0  93700-4 0  9990,2 49750  53.2192 309.1216 0001734 105.8070 254.3114 15.08840739110206,6917.878,95.438,540.943,538.544,0.0
49750.0,STARLINK-3236,PAYLOAD,2023-11-23 07:41:40,15.08849148,0.0001711,53.219,308.2294,105.7509,254.3672,0.00013801,1.91e-05,0.0,0 STARLINK-3236,1 49750U 21115AC  23327.32060682  .00001910  00000-0  13801-3 0  9996,2 49750  53.2190 308.2294 0001711 105.7509 254.3672 15.08849148110236,6917.852,95.437,540.901,538.534,0.0
49750.0,STARLINK-3236,PAYLOAD,2023-11-23 22:00:10,15.08834042,0.0002018,53.2192,305.5524,105.3723,254.7492,-5.4385e-05,-1.154e-05,0.0,0 STARLINK-3236,1 49750U 21115AC  23327.91678408 -.00001154  00000-0 -54385-4 0  9997,2 49750  53.2192 305.5524 0002018 105.3723 254.7492 15.08834042109216,6917.899,95.438,541.16,538.368,0.0
49750.0,STARLINK-3236,PAYLOAD,2023-11-24 02:46:20,15.08827132,0.0001732,53.2185,304.6587,109.5194,250.5985,-0.00011757,-2.158e-05,0.0,0 STARLINK-3236,1 49750U 21115AC  23328.11551051 -.00002158  00000-0 -11757-3 0  9994,2 49750  53.2185 304.6587 0001732 109.5194 250.5985 15.08827132110357,6917.92,95.438,540.983,538.587,0.0
49750.0,STARLINK-3236,PAYLOAD,2023-11-24 09:07:52,15.08830058,0.0001747,53.2183,303.4684,110.7875,249.3304,-9.0221e-05,-1.723e-05,0.0,0 STARLINK-3236,1 49750U 21115AC  23328.38046952 -.00001723  00000-0 -90221-4 0  9993,2 49750  53.2183 303.4684 0001747 110.7875 249.3304 15.08830058109288,6917.911,95.438,540.984,538.567,0.0
